{
  "type": "FeatureCollection",
  "features": [
    {
      "type": "Feature",
      "properties": {
        "norad_id": 66542,
        "name": "STARLINK-35833",
        "group": "last-30-days",
        "lat": -41.92938760155436,
        "lon": -36.93997165614129,
        "alt_km": 417.31329873953473,
        "timestamp": "2025-12-10T05:46:12.575385+00:00",
        "meta_object_name": "STARLINK-35833",
        "meta_object_id": "2025-265AC",
        "meta_epoch": "2025-12-09T20:00:01.999008",
        "meta_mean_motion": 15.50645611,
        "meta_eccentricity": 0.0001893,
        "meta_inclination": 43.0004,
        "meta_ra_of_asc_node": 70.8944,
        "meta_arg_of_pericenter": 280.1056,
        "meta_mean_anomaly": 223.434,
        "meta_ephemeris_type": 0,
        "meta_classification_type": "U",
        "meta_norad_cat_id": 66542,
        "meta_element_set_no": 999,
        "meta_rev_at_epoch": 452,
        "meta_bstar": -0.0024215,
        "meta_mean_motion_dot": -0.00140227,
        "meta_mean_motion_ddot": 0,
        "tle_line1": "1 66542U 25265AC  25343.83335647 -.00140227  00000+0 -24215-2 0  9992",
        "tle_line2": "2 66542  43.0004  70.8944 0001893 280.1056 223.4340 15.50645611  4524"
      },
      "geometry": {
        "type": "Point",
        "coordinates": [
          -36.93997165614129,
          -41.92938760155436
        ]
      }
    },
    {
      "type": "Feature",
      "properties": {
        "norad_id": 66543,
        "name": "STARLINK-35315",
        "group": "last-30-days",
        "lat": -42.24972633105166,
        "lon": -34.394581438809816,
        "alt_km": 417.2689432987554,
        "timestamp": "2025-12-10T05:46:12.575394+00:00",
        "meta_object_name": "STARLINK-35315",
        "meta_object_id": "2025-265AD",
        "meta_epoch": "2025-12-09T20:00:01.999008",
        "meta_mean_motion": 15.50657653,
        "meta_eccentricity": 0.0001935,
        "meta_inclination": 43.0002,
        "meta_ra_of_asc_node": 70.8894,
        "meta_arg_of_pericenter": 276.1627,
        "meta_mean_anomaly": 229.2941,
        "meta_ephemeris_type": 0,
        "meta_classification_type": "U",
        "meta_norad_cat_id": 66543,
        "meta_element_set_no": 999,
        "meta_rev_at_epoch": 441,
        "meta_bstar": -0.0028299,
        "meta_mean_motion_dot": -0.00163411,
        "meta_mean_motion_ddot": 0,
        "tle_line1": "1 66543U 25265AD  25343.83335647 -.00163411  00000+0 -28299-2 0  9999",
        "tle_line2": "2 66543  43.0002  70.8894 0001935 276.1627 229.2941 15.50657653  4411"
      },
      "geometry": {
        "type": "Point",
        "coordinates": [
          -34.394581438809816,
          -42.24972633105166
        ]
      }
    },
    {
      "type": "Feature",
      "properties": {
        "norad_id": 66544,
        "name": "STARLINK-35728",
        "group": "last-30-days",
        "lat": -42.51190299768465,
        "lon": -31.836677036921465,
        "alt_km": 417.3342762707298,
        "timestamp": "2025-12-10T05:46:12.575404+00:00",
        "meta_object_name": "STARLINK-35728",
        "meta_object_id": "2025-265AE",
        "meta_epoch": "2025-12-09T20:00:01.999008",
        "meta_mean_motion": 15.50655245,
        "meta_eccentricity": 0.0001842,
        "meta_inclination": 42.9999,
        "meta_ra_of_asc_node": 70.8844,
        "meta_arg_of_pericenter": 276.9693,
        "meta_mean_anomaly": 230.4032,
        "meta_ephemeris_type": 0,
        "meta_classification_type": "U",
        "meta_norad_cat_id": 66544,
        "meta_element_set_no": 999,
        "meta_rev_at_epoch": 452,
        "meta_bstar": -0.0027938,
        "meta_mean_motion_dot": -0.00161354,
        "meta_mean_motion_ddot": 0,
        "tle_line1": "1 66544U 25265AE  25343.83335647 -.00161354  00000+0 -27938-2 0  9993",
        "tle_line2": "2 66544  42.9999  70.8844 0001842 276.9693 230.4032 15.50655245  4520"
      },
      "geometry": {
        "type": "Point",
        "coordinates": [
          -31.836677036921465,
          -42.51190299768465
        ]
      }
    },
    {
      "type": "Feature",
      "properties": {
        "norad_id": 66545,
        "name": "SHIJIAN-30A",
        "group": "last-30-days",
        "lat": -42.37621958594134,
        "lon": -61.35911442459449,
        "alt_km": 517.495640457535,
        "timestamp": "2025-12-10T05:46:12.575416+00:00",
        "meta_object_name": "SHIJIAN-30A",
        "meta_object_id": "2025-266A",
        "meta_epoch": "2025-12-09T17:22:07.936608",
        "meta_mean_motion": 15.15552376,
        "meta_eccentricity": 0.0012776,
        "meta_inclination": 51.7991,
        "meta_ra_of_asc_node": 346.9918,
        "meta_arg_of_pericenter": 345.45,
        "meta_mean_anomaly": 14.6107,
        "meta_ephemeris_type": 0,
        "meta_classification_type": "U",
        "meta_norad_cat_id": 66545,
        "meta_element_set_no": 999,
        "meta_rev_at_epoch": 312,
        "meta_bstar": 0.00082109,
        "meta_mean_motion_dot": 0.00015522,
        "meta_mean_motion_ddot": 0,
        "tle_line1": "1 66545U 25266A   25343.72370297  .00015522  00000+0  82109-3 0  9998",
        "tle_line2": "2 66545  51.7991 346.9918 0012776 345.4500  14.6107 15.15552376  3129"
      },
      "geometry": {
        "type": "Point",
        "coordinates": [
          -61.35911442459449,
          -42.37621958594134
        ]
      }
    },
    {
      "type": "Feature",
      "properties": {
        "norad_id": 66546,
        "name": "SHIJIAN-30B",
        "group": "last-30-days",
        "lat": -44.14903836557647,
        "lon": -65.28810872633197,
        "alt_km": 519.008635232798,
        "timestamp": "2025-12-10T05:46:12.575427+00:00",
        "meta_object_name": "SHIJIAN-30B",
        "meta_object_id": "2025-266B",
        "meta_epoch": "2025-12-09T14:13:10.595136",
        "meta_mean_motion": 15.15642408,
        "meta_eccentricity": 0.0010428,
        "meta_inclination": 51.7973,
        "meta_ra_of_asc_node": 347.6109,
        "meta_arg_of_pericenter": 348.0528,
        "meta_mean_anomaly": 12.02,
        "meta_ephemeris_type": 0,
        "meta_classification_type": "U",
        "meta_norad_cat_id": 66546,
        "meta_element_set_no": 999,
        "meta_rev_at_epoch": 310,
        "meta_bstar": 0.00088193,
        "meta_mean_motion_dot": 0.00016731,
        "meta_mean_motion_ddot": 0,
        "tle_line1": "1 66546U 25266B   25343.59248374  .00016731  00000+0  88193-3 0  9996",
        "tle_line2": "2 66546  51.7973 347.6109 0010428 348.0528  12.0200 15.15642408  3101"
      },
      "geometry": {
        "type": "Point",
        "coordinates": [
          -65.28810872633197,
          -44.14903836557647
        ]
      }
    },
    {
      "type": "Feature",
      "properties": {
        "norad_id": 66547,
        "name": "SHIJIAN-30C",
        "group": "last-30-days",
        "lat": -45.91941391471877,
        "lon": -69.8275819801805,
        "alt_km": 518.2534412376044,
        "timestamp": "2025-12-10T05:46:12.575439+00:00",
        "meta_object_name": "SHIJIAN-30C",
        "meta_object_id": "2025-266C",
        "meta_epoch": "2025-12-09T18:58:59.395872",
        "meta_mean_motion": 15.156555,
        "meta_eccentricity": 0.0011349,
        "meta_inclination": 51.7982,
        "meta_ra_of_asc_node": 346.6898,
        "meta_arg_of_pericenter": 341.1019,
        "meta_mean_anomaly": 18.9535,
        "meta_ephemeris_type": 0,
        "meta_classification_type": "U",
        "meta_norad_cat_id": 66547,
        "meta_element_set_no": 999,
        "meta_rev_at_epoch": 313,
        "meta_bstar": 0.00082868,
        "meta_mean_motion_dot": 0.00015709,
        "meta_mean_motion_ddot": 0,
        "tle_line1": "1 66547U 25266C   25343.79096523  .00015709  00000+0  82868-3 0  9993",
        "tle_line2": "2 66547  51.7982 346.6898 0011349 341.1019  18.9535 15.15655500  3134"
      },
      "geometry": {
        "type": "Point",
        "coordinates": [
          -69.8275819801805,
          -45.91941391471877
        ]
      }
    },
    {
      "type": "Feature",
      "properties": {
        "norad_id": 66548,
        "name": "CZ-2C R/B",
        "group": "last-30-days",
        "lat": -39.900817205992574,
        "lon": -57.53824481056511,
        "alt_km": 524.4571378822866,
        "timestamp": "2025-12-10T05:46:12.575449+00:00",
        "meta_object_name": "CZ-2C R/B",
        "meta_object_id": "2025-266D",
        "meta_epoch": "2025-12-09T17:28:15.072672",
        "meta_mean_motion": 15.30079129,
        "meta_eccentricity": 0.0084094,
        "meta_inclination": 52.0566,
        "meta_ra_of_asc_node": 345.6269,
        "meta_arg_of_pericenter": 162.7159,
        "meta_mean_anomaly": 197.6721,
        "meta_ephemeris_type": 0,
        "meta_classification_type": "U",
        "meta_norad_cat_id": 66548,
        "meta_element_set_no": 999,
        "meta_rev_at_epoch": 315,
        "meta_bstar": 0.00045839,
        "meta_mean_motion_dot": 0.00014711,
        "meta_mean_motion_ddot": 0,
        "tle_line1": "1 66548U 25266D   25343.72795223  .00014711  00000+0  45839-3 0  9999",
        "tle_line2": "2 66548  52.0566 345.6269 0084094 162.7159 197.6721 15.30079129  3155"
      },
      "geometry": {
        "type": "Point",
        "coordinates": [
          -57.53824481056511,
          -39.900817205992574
        ]
      }
    }
  ]
}